{
 "type": "FeatureCollection",
 "name": "caai-weekend-bubbles",
 "crs": {
  "type": "name",
  "properties": {
   "name": "urn:ogc:def:crs:OGC:1.3:CRS84"
  }
 },
 "features": [
  {
   "type": "Feature",
   "properties": {
    "name_he": "בועת כנרת",
    "zoneType": "WEEKEND_BUBBLE",
    "altFloor": 0,
    "altCeiling": 2000,
    "layer": "caai-weekend-bubbles",
    "verified": false,
    "confidence": "manual-trace",
    "sheet": "north"
   },
   "geometry": {
    "type": "Polygon",
    "coordinates": [
     [
      [
       35.636745,
       32.913242
      ],
      [
       35.664225,
       32.882951
      ],
      [
       35.660446,
       32.86506
      ],
      [
       35.662164,
       32.846299
      ],
      [
       35.653576,
       32.812809
      ],
      [
       35.657355,
       32.792593
      ],
      [
       35.643958,
       32.741744
      ],
      [
       35.639493,
       32.732207
      ],
      [
       35.623348,
       32.711973
      ],
      [
       35.600677,
       32.701276
      ],
      [
       35.580754,
       32.69983
      ],
      [
       35.562204,
       32.7033
      ],
      [
       35.547434,
       32.717465
      ],
      [
       35.55293,
       32.734808
      ],
      [
       35.54709,
       32.761683
      ],
      [
       35.530259,
       32.781906
      ],
      [
       35.507244,
       32.790571
      ],
      [
       35.492473,
       32.805012
      ],
      [
       35.483199,
       32.808477
      ],
      [
       35.481138,
       32.820894
      ],
      [
       35.503122,
       32.905454
      ],
      [
       35.504839,
       32.913242
      ],
      [
       35.527167,
       32.904012
      ],
      [
       35.559456,
       32.897954
      ],
      [
       35.590715,
       32.897665
      ],
      [
       35.605396,
       32.90189
      ],
      [
       35.636745,
       32.913242
      ]
     ]
    ]
   }
  },
  {
   "type": "Feature",
   "properties": {
    "name_he": "בועת רמת הגולן",
    "zoneType": "WEEKEND_BUBBLE",
    "altFloor": 0,
    "altCeiling": 4000,
    "layer": "caai-weekend-bubbles",
    "verified": false,
    "confidence": "manual-trace",
    "sheet": "north"
   },
   "geometry": {
    "type": "Polygon",
    "coordinates": [
     [
      [
       35.728654,
       33.227258
      ],
      [
       35.730734,
       33.062977
      ],
      [
       35.747208,
       32.991033
      ],
      [
       35.782127,
       32.883339
      ],
      [
       35.741368,
       32.822961
      ],
      [
       35.712514,
       32.837108
      ],
      [
       35.681255,
       32.825848
      ],
      [
       35.661675,
       32.806791
      ],
      [
       35.678507,
       32.893672
      ],
      [
       35.639347,
       32.922518
      ],
      [
       35.64553,
       32.984792
      ],
      [
       35.663736,
       33.02686
      ],
      [
       35.663096,
       33.09782
      ],
      [
       35.665157,
       33.108469
      ],
      [
       35.665844,
       33.131202
      ],
      [
       35.674437,
       33.187519
      ],
      [
       35.678789,
       33.234664
      ],
      [
       35.728654,
       33.227258
      ]
     ]
    ]
   }
  },
  {
   "type": "Feature",
   "properties": {
    "name_he": "בועת מגידו א' מזרח",
    "zoneType": "WEEKEND_BUBBLE",
    "altFloor": 0,
    "altCeiling": 2000,
    "layer": "caai-weekend-bubbles",
    "verified": false,
    "confidence": "manual-trace",
    "sheet": "north"
   },
   "geometry": {
    "type": "Polygon",
    "coordinates": [
     [
      [
       35.416487,
       32.713072
      ],
      [
       35.413137,
       32.780066
      ],
      [
       35.422412,
       32.782665
      ],
      [
       35.446113,
       32.784399
      ],
      [
       35.457792,
       32.792486
      ],
      [
       35.484929,
       32.79162
      ],
      [
       35.502448,
       32.77891
      ],
      [
       35.527867,
       32.768799
      ],
      [
       35.548134,
       32.727476
      ],
      [
       35.505196,
       32.717359
      ],
      [
       35.440349,
       32.730396
      ],
      [
       35.419612,
       32.70581
      ],
      [
       35.416487,
       32.713072
      ]
     ]
    ]
   }
  },
  {
   "type": "Feature",
   "properties": {
    "name_he": "בועת מגידו ב' מזרח",
    "zoneType": "WEEKEND_BUBBLE",
    "altFloor": 0,
    "altCeiling": 2000,
    "layer": "caai-weekend-bubbles",
    "verified": false,
    "confidence": "manual-trace",
    "sheet": "north"
   },
   "geometry": {
    "type": "Polygon",
    "coordinates": [
     [
      [
       35.545727,
       32.71852
      ],
      [
       35.556376,
       32.700596
      ],
      [
       35.584543,
       32.689897
      ],
      [
       35.569964,
       32.664533
      ],
      [
       35.551567,
       32.652587
      ],
      [
       35.548819,
       32.568945
      ],
      [
       35.537827,
       32.539985
      ],
      [
       35.547746,
       32.504464
      ],
      [
       35.420994,
       32.55342
      ],
      [
       35.443321,
       32.594535
      ],
      [
       35.450191,
       32.644889
      ],
      [
       35.435551,
       32.673036
      ],
      [
       35.422314,
       32.689787
      ],
      [
       35.423514,
       32.695714
      ],
      [
       35.444127,
       32.720289
      ],
      [
       35.504778,
       32.70819
      ],
      [
       35.545727,
       32.71852
      ]
     ]
    ]
   }
  },
  {
   "type": "Feature",
   "properties": {
    "name_he": "בועת מגידו א' מערב",
    "zoneType": "WEEKEND_BUBBLE",
    "altFloor": 0,
    "altCeiling": 2000,
    "layer": "caai-weekend-bubbles",
    "verified": false,
    "confidence": "manual-trace",
    "sheet": "north",
    "weekendOnly": false
   },
   "geometry": {
    "type": "Polygon",
    "coordinates": [
     [
      [
       35.402928,
       32.776739
      ],
      [
       35.406954,
       32.711933
      ],
      [
       35.413395,
       32.692556
      ],
      [
       35.365355,
       32.658149
      ],
      [
       35.291158,
       32.622128
      ],
      [
       35.300605,
       32.710925
      ],
      [
       35.322921,
       32.740197
      ],
      [
       35.34628,
       32.764763
      ],
      [
       35.356424,
       32.765836
      ],
      [
       35.370824,
       32.768222
      ],
      [
       35.396748,
       32.775874
      ],
      [
       35.402928,
       32.776739
      ]
     ]
    ]
   }
  },
  {
   "type": "Feature",
   "properties": {
    "name_he": "בועת מגידו ב' מערב",
    "zoneType": "WEEKEND_BUBBLE",
    "altFloor": 0,
    "altCeiling": 2000,
    "layer": "caai-weekend-bubbles",
    "verified": false,
    "confidence": "manual-trace",
    "sheet": "north",
    "weekendOnly": false
   },
   "geometry": {
    "type": "Polygon",
    "coordinates": [
     [
      [
       35.429542,
       32.664222
      ],
      [
       35.4413,
       32.643744
      ],
      [
       35.43443,
       32.595995
      ],
      [
       35.412446,
       32.55546
      ],
      [
       35.355424,
       32.565016
      ],
      [
       35.330349,
       32.576888
      ],
      [
       35.31333,
       32.59694
      ],
      [
       35.342371,
       32.635064
      ],
      [
       35.36656,
       32.6472
      ],
      [
       35.416233,
       32.680782
      ],
      [
       35.429542,
       32.664222
      ]
     ]
    ]
   }
  },
  {
   "type": "Feature",
   "properties": {
    "name_he": "בועת חרוד",
    "zoneType": "WEEKEND_BUBBLE",
    "altFloor": 0,
    "altCeiling": 1500,
    "layer": "caai-weekend-bubbles",
    "verified": false,
    "confidence": "manual-trace",
    "sheet": "north"
   },
   "geometry": {
    "type": "Polygon",
    "coordinates": [
     [
      [
       35.551586,
       32.498687
      ],
      [
       35.534016,
       32.368267
      ],
      [
       35.443332,
       32.421068
      ],
      [
       35.436118,
       32.474418
      ],
      [
       35.411386,
       32.522522
      ],
      [
       35.35747,
       32.542992
      ],
      [
       35.268159,
       32.53633
      ],
      [
       35.235386,
       32.574954
      ],
      [
       35.249205,
       32.574447
      ],
      [
       35.267836,
       32.581683
      ],
      [
       35.271442,
       32.588196
      ],
      [
       35.272044,
       32.601367
      ],
      [
       35.293665,
       32.606122
      ],
      [
       35.297205,
       32.602236
      ],
      [
       35.307481,
       32.595419
      ],
      [
       35.326489,
       32.573359
      ],
      [
       35.349246,
       32.561632
      ],
      [
       35.418462,
       32.548455
      ],
      [
       35.44474,
       32.537666
      ],
      [
       35.47076,
       32.526948
      ],
      [
       35.479403,
       32.522862
      ],
      [
       35.5062,
       32.511845
      ],
      [
       35.551586,
       32.498687
      ]
     ]
    ]
   }
  },
  {
   "type": "Feature",
   "properties": {
    "name_he": "בועת אורן",
    "zoneType": "WEEKEND_BUBBLE",
    "altFloor": 0,
    "altCeiling": 2100,
    "layer": "caai-weekend-bubbles",
    "verified": false,
    "confidence": "manual-trace",
    "sheet": "north"
   },
   "geometry": {
    "type": "Polygon",
    "coordinates": [
     [
      [
       34.984931,
       32.770533
      ],
      [
       35.029215,
       32.750802
      ],
      [
       35.076612,
       32.755768
      ],
      [
       35.087604,
       32.727735
      ],
      [
       35.088291,
       32.677138
      ],
      [
       35.088978,
       32.638955
      ],
      [
       35.048788,
       32.622751
      ],
      [
       34.975965,
       32.594967
      ],
      [
       34.986614,
       32.655156
      ],
      [
       34.994858,
       32.719063
      ],
      [
       34.980431,
       32.74103
      ],
      [
       34.984931,
       32.770533
      ]
     ]
    ]
   }
  },
  {
   "type": "Feature",
   "properties": {
    "name_he": "בועת ערה",
    "zoneType": "WEEKEND_BUBBLE",
    "altFloor": 0,
    "altCeiling": 2000,
    "layer": "caai-weekend-bubbles",
    "verified": false,
    "confidence": "manual-trace",
    "sheet": "north"
   },
   "geometry": {
    "type": "Polygon",
    "coordinates": [
     [
      [
       35.074544,
       32.595613
      ],
      [
       35.08879,
       32.598024
      ],
      [
       35.183944,
       32.575399
      ],
      [
       35.210737,
       32.584808
      ],
      [
       35.213102,
       32.582597
      ],
      [
       35.215936,
       32.580353
      ],
      [
       35.220917,
       32.57753
      ],
      [
       35.226585,
       32.575504
      ],
      [
       35.230707,
       32.574997
      ],
      [
       35.231222,
       32.572246
      ],
      [
       35.188542,
       32.559361
      ],
      [
       35.139878,
       32.51836
      ],
      [
       35.141532,
       32.493498
      ],
      [
       35.053252,
       32.459151
      ],
      [
       35.051005,
       32.454205
      ],
      [
       35.030937,
       32.491377
      ],
      [
       35.036087,
       32.493405
      ],
      [
       35.066471,
       32.510196
      ],
      [
       35.112836,
       32.535637
      ],
      [
       35.074544,
       32.595613
      ]
     ]
    ]
   }
  },
  {
   "type": "Feature",
   "properties": {
    "name_he": "בועת השרון צפון",
    "zoneType": "WEEKEND_BUBBLE",
    "altFloor": 0,
    "altCeiling": 1000,
    "layer": "caai-weekend-bubbles",
    "verified": false,
    "confidence": "manual-trace",
    "sheet": "north"
   },
   "geometry": {
    "type": "Polygon",
    "coordinates": [
     [
      [
       35.053084,
       32.621332
      ],
      [
       35.098618,
       32.535056
      ],
      [
       35.040566,
       32.503912
      ],
      [
       35.033009,
       32.499421
      ],
      [
       35.024422,
       32.490872
      ],
      [
       34.975129,
       32.482467
      ],
      [
       34.95658,
       32.467394
      ],
      [
       34.956751,
       32.462611
      ],
      [
       34.949194,
       32.456813
      ],
      [
       34.940535,
       32.461859
      ],
      [
       34.895107,
       32.460917
      ],
      [
       34.905367,
       32.477402
      ],
      [
       34.892788,
       32.495626
      ],
      [
       34.898113,
       32.517066
      ],
      [
       34.908204,
       32.556242
      ],
      [
       34.912147,
       32.573046
      ],
      [
       34.923139,
       32.61656
      ],
      [
       34.950782,
       32.612416
      ],
      [
       34.948369,
       32.595567
      ],
      [
       34.966238,
       32.586368
      ],
      [
       35.053084,
       32.621332
      ]
     ]
    ]
   }
  },
  {
   "type": "Feature",
   "properties": {
    "name_he": "בועת החולה",
    "zoneType": "WEEKEND_BUBBLE",
    "altFloor": 0,
    "altCeiling": 2000,
    "layer": "caai-weekend-bubbles",
    "verified": false,
    "confidence": "manual-trace",
    "sheet": "north"
   },
   "geometry": {
    "type": "Polygon",
    "coordinates": [
     [
      [
       35.654213,
       33.230063
      ],
      [
       35.659365,
       33.205343
      ],
      [
       35.658678,
       33.185792
      ],
      [
       35.64803,
       33.161634
      ],
      [
       35.64803,
       33.125674
      ],
      [
       35.644595,
       33.100924
      ],
      [
       35.637725,
       33.089123
      ],
      [
       35.636007,
       33.058028
      ],
      [
       35.574811,
       33.073786
      ],
      [
       35.572236,
       33.091202
      ],
      [
       35.568457,
       33.143852
      ],
      [
       35.564851,
       33.184118
      ],
      [
       35.580137,
       33.180092
      ],
      [
       35.6138,
       33.179661
      ],
      [
       35.624369,
       33.19345
      ],
      [
       35.629691,
       33.207382
      ],
      [
       35.632439,
       33.222461
      ],
      [
       35.654213,
       33.230063
      ]
     ]
    ]
   }
  },
  {
   "type": "Feature",
   "properties": {
    "name_he": "בועת כרמיאל",
    "zoneType": "WEEKEND_BUBBLE",
    "altFloor": 0,
    "altCeiling": 4000,
    "layer": "caai-weekend-bubbles",
    "verified": false,
    "confidence": "manual-trace",
    "sheet": "north"
   },
   "geometry": {
    "type": "Polygon",
    "coordinates": [
     [
      [
       35.096684,
       32.993692
      ],
      [
       35.182813,
       32.992807
      ],
      [
       35.421786,
       32.993075
      ],
      [
       35.437244,
       32.989905
      ],
      [
       35.447892,
       32.962235
      ],
      [
       35.466441,
       32.928211
      ],
      [
       35.467472,
       32.916387
      ],
      [
       35.47389,
       32.90944
      ],
      [
       35.479494,
       32.863011
      ],
      [
       35.479494,
       32.863011
      ],
      [
       35.455106,
       32.86734
      ],
      [
       35.440679,
       32.878883
      ],
      [
       35.420412,
       32.873978
      ],
      [
       35.360986,
       32.882346
      ],
      [
       35.301903,
       32.879172
      ],
      [
       35.301903,
       32.879172
      ],
      [
       35.252439,
       32.888116
      ],
      [
       35.212249,
       32.885519
      ],
      [
       35.195761,
       32.88927
      ],
      [
       35.187517,
       32.894175
      ],
      [
       35.183739,
       32.894463
      ],
      [
       35.182364,
       32.899656
      ],
      [
       35.197479,
       32.903406
      ],
      [
       35.207784,
       32.910041
      ],
      [
       35.167234,
       32.936512
      ],
      [
       35.166212,
       32.958816
      ],
      [
       35.155048,
       32.971212
      ],
      [
       35.150754,
       32.982165
      ],
      [
       35.095329,
       32.986897
      ],
      [
       35.096684,
       32.993692
      ]
     ]
    ]
   }
  },
  {
   "type": "Feature",
   "properties": {
    "name_he": "בועת נעמה",
    "zoneType": "WEEKEND_BUBBLE",
    "altFloor": 0,
    "altCeiling": 2500,
    "layer": "caai-weekend-bubbles",
    "verified": false,
    "confidence": "manual-trace",
    "sheet": "north"
   },
   "geometry": {
    "type": "Polygon",
    "coordinates": [
     [
      [
       35.449193,
       32.410617
      ],
      [
       35.537301,
       32.359696
      ],
      [
       35.536235,
       32.319081
      ],
      [
       35.54757,
       32.28336
      ],
      [
       35.551692,
       32.252274
      ],
      [
       35.549975,
       32.219433
      ],
      [
       35.538021,
       32.195077
      ],
      [
       35.538639,
       32.195304
      ],
      [
       35.525793,
       32.165825
      ],
      [
       35.50982,
       32.118696
      ],
      [
       35.499917,
       32.051443
      ],
      [
       35.501519,
       31.98387
      ],
      [
       35.503237,
       31.964925
      ],
      [
       35.510107,
       31.891441
      ],
      [
       35.475756,
       31.897567
      ],
      [
       35.471978,
       31.9174
      ],
      [
       35.404308,
       31.917692
      ],
      [
       35.406369,
       31.82432
      ],
      [
       35.37511,
       31.83191
      ],
      [
       35.326676,
       31.818773
      ],
      [
       35.273777,
       31.82724
      ],
      [
       35.332516,
       31.920608
      ],
      [
       35.3545,
       31.976292
      ],
      [
       35.37511,
       32.027574
      ],
      [
       35.400873,
       32.09571
      ],
      [
       35.456177,
       32.234737
      ],
      [
       35.456308,
       32.263927
      ],
      [
       35.449193,
       32.410617
      ]
     ]
    ]
   }
  },
  {
   "type": "Feature",
   "properties": {
    "name_he": "בועת גוברין (דרומי)",
    "zoneType": "WEEKEND_BUBBLE",
    "altFloor": 0,
    "altCeiling": 2000,
    "layer": "caai-weekend-bubbles",
    "verified": false,
    "confidence": "manual-trace",
    "sheet": "north"
   },
   "geometry": {
    "type": "Polygon",
    "coordinates": [
     [
      [
       34.905438,
       31.802265
      ],
      [
       34.909569,
       31.815292
      ],
      [
       34.932234,
       31.828424
      ],
      [
       34.956448,
       31.828688
      ],
      [
       34.978432,
       31.837737
      ],
      [
       35.087838,
       31.786496
      ],
      [
       35.11841,
       31.765319
      ],
      [
       35.076674,
       31.733765
      ],
      [
       35.038717,
       31.71433
      ],
      [
       34.989767,
       31.680225
      ],
      [
       34.953555,
       31.61826
      ],
      [
       34.90598,
       31.626013
      ],
      [
       34.863386,
       31.60641
      ],
      [
       34.824742,
       31.600704
      ],
      [
       34.820791,
       31.601874
      ],
      [
       34.822681,
       31.631718
      ],
      [
       34.813749,
       31.678659
      ],
      [
       34.82852,
       31.710817
      ],
      [
       34.830925,
       31.74793
      ],
      [
       34.87028,
       31.74306
      ],
      [
       34.909745,
       31.720721
      ],
      [
       34.92262,
       31.712544
      ],
      [
       34.948198,
       31.696183
      ],
      [
       34.975021,
       31.758974
      ],
      [
       34.905438,
       31.802265
      ]
     ]
    ]
   }
  },
  {
   "type": "Feature",
   "properties": {
    "name_he": "בועת גוברין (צפונית)",
    "zoneType": "WEEKEND_BUBBLE",
    "altFloor": 0,
    "altCeiling": 1500,
    "layer": "caai-weekend-bubbles",
    "verified": false,
    "confidence": "manual-trace",
    "sheet": "north"
   },
   "geometry": {
    "type": "Polygon",
    "coordinates": [
     [
      [
       34.91162,
       31.821232
      ],
      [
       34.930684,
       31.831742
      ],
      [
       34.947859,
       31.831012
      ],
      [
       34.947859,
       31.831012
      ],
      [
       34.974481,
       31.840061
      ],
      [
       34.954729,
       31.863992
      ],
      [
       34.907326,
       31.838601
      ],
      [
       34.91162,
       31.821232
      ]
     ]
    ]
   }
  },
  {
   "type": "Feature",
   "properties": {
    "name_he": "בועת שדרות צפון",
    "zoneType": "WEEKEND_BUBBLE",
    "altFloor": 0,
    "altCeiling": 1000,
    "layer": "caai-weekend-bubbles",
    "verified": false,
    "confidence": "manual-trace",
    "sheet": "north"
   },
   "geometry": {
    "type": "Polygon",
    "coordinates": [
     [
      [
       34.735127,
       31.672127
      ],
      [
       34.730661,
       31.638493
      ],
      [
       34.744401,
       31.625329
      ],
      [
       34.745702,
       31.614214
      ],
      [
       34.750339,
       31.600461
      ],
      [
       34.766655,
       31.60368
      ],
      [
       34.771121,
       31.597681
      ],
      [
       34.769919,
       31.593437
      ],
      [
       34.771808,
       31.589486
      ],
      [
       34.776102,
       31.58612
      ],
      [
       34.7828,
       31.585974
      ],
      [
       34.801665,
       31.582446
      ],
      [
       34.797199,
       31.556831
      ],
      [
       34.791532,
       31.539556
      ],
      [
       34.787238,
       31.530331
      ],
      [
       34.77865,
       31.517591
      ],
      [
       34.776074,
       31.51642
      ],
      [
       34.770578,
       31.52711
      ],
      [
       34.764223,
       31.537506
      ],
      [
       34.758899,
       31.558149
      ],
      [
       34.747735,
       31.561077
      ],
      [
       34.681611,
       31.561955
      ],
      [
       34.664435,
       31.564297
      ],
      [
       34.629226,
       31.561809
      ],
      [
       34.608445,
       31.598543
      ],
      [
       34.588178,
       31.618587
      ],
      [
       34.598998,
       31.650473
      ],
      [
       34.606555,
       31.679716
      ],
      [
       34.616689,
       31.711289
      ],
      [
       34.735127,
       31.672127
      ]
     ]
    ]
   }
  },
  {
   "type": "Feature",
   "properties": {
    "name_he": "בועת שדרות דרום",
    "zoneType": "WEEKEND_BUBBLE",
    "altFloor": 0,
    "altCeiling": 1500,
    "layer": "caai-weekend-bubbles",
    "verified": false,
    "confidence": "manual-trace",
    "sheet": "north"
   },
   "geometry": {
    "type": "Polygon",
    "coordinates": [
     [
      [
       34.685586,
       31.557181
      ],
      [
       34.752275,
       31.557218
      ],
      [
       34.767733,
       31.52325
      ],
      [
       34.767733,
       31.484289
      ],
      [
       34.759489,
       31.463776
      ],
      [
       34.737505,
       31.420392
      ],
      [
       34.70659,
       31.383734
      ],
      [
       34.689414,
       31.341194
      ],
      [
       34.642011,
       31.345595
      ],
      [
       34.588768,
       31.322998
      ],
      [
       34.521103,
       31.322555
      ],
      [
       34.479878,
       31.361439
      ],
      [
       34.55957,
       31.453811
      ],
      [
       34.594951,
       31.494543
      ],
      [
       34.613844,
       31.517978
      ],
      [
       34.62724,
       31.535257
      ],
      [
       34.627584,
       31.557804
      ],
      [
       34.661247,
       31.561024
      ],
      [
       34.685586,
       31.557181
      ]
     ]
    ]
   }
  },
  {
   "type": "Feature",
   "properties": {
    "name_he": "בועת להבים",
    "zoneType": "WEEKEND_BUBBLE",
    "altFloor": 0,
    "altCeiling": 2000,
    "layer": "caai-weekend-bubbles",
    "verified": false,
    "confidence": "manual-trace",
    "sheet": "north"
   },
   "geometry": {
    "type": "Polygon",
    "coordinates": [
     [
      [
       34.94424,
       31.601558
      ],
      [
       34.90508,
       31.532471
      ],
      [
       34.900271,
       31.506696
      ],
      [
       34.861112,
       31.450436
      ],
      [
       34.869356,
       31.402353
      ],
      [
       34.868669,
       31.387689
      ],
      [
       34.826762,
       31.417015
      ],
      [
       34.795846,
       31.432847
      ],
      [
       34.777253,
       31.445998
      ],
      [
       34.7721,
       31.450981
      ],
      [
       34.790649,
       31.511635
      ],
      [
       34.801985,
       31.549413
      ],
      [
       34.81222,
       31.59889
      ],
      [
       34.859006,
       31.582201
      ],
      [
       34.890861,
       31.598715
      ],
      [
       34.910532,
       31.603858
      ],
      [
       34.94424,
       31.601558
      ]
     ]
    ]
   }
  },
  {
   "type": "Feature",
   "properties": {
    "name_he": "בועת ים המלח",
    "zoneType": "WEEKEND_BUBBLE",
    "altFloor": 0,
    "altCeiling": 3000,
    "layer": "caai-weekend-bubbles",
    "verified": false,
    "confidence": "manual-trace",
    "sheet": "north"
   },
   "geometry": {
    "type": "Polygon",
    "coordinates": [
     [
      [
       35.450543,
       31.706318
      ],
      [
       35.511246,
       31.695166
      ],
      [
       35.491763,
       31.644914
      ],
      [
       35.477336,
       31.584639
      ],
      [
       35.47184,
       31.50265
      ],
      [
       35.467304,
       31.436896
      ],
      [
       35.459474,
       31.389505
      ],
      [
       35.449169,
       31.344912
      ],
      [
       35.427184,
       31.358996
      ],
      [
       35.41207,
       31.369558
      ],
      [
       35.395582,
       31.373665
      ],
      [
       35.394895,
       31.404755
      ],
      [
       35.38459,
       31.42528
      ],
      [
       35.406574,
       31.461629
      ],
      [
       35.406716,
       31.483512
      ],
      [
       35.398292,
       31.505388
      ],
      [
       35.381812,
       31.510655
      ],
      [
       35.388167,
       31.554685
      ],
      [
       35.414273,
       31.62873
      ],
      [
       35.450543,
       31.706318
      ]
     ]
    ]
   }
  },
  {
   "type": "Feature",
   "properties": {
    "name_he": "בועת שלם",
    "zoneType": "WEEKEND_BUBBLE",
    "altFloor": 0,
    "altCeiling": 3000,
    "layer": "caai-weekend-bubbles",
    "verified": false,
    "confidence": "manual-trace",
    "sheet": "north"
   },
   "geometry": {
    "type": "Polygon",
    "coordinates": [
     [
      [
       35.439491,
       31.709478
      ],
      [
       35.398153,
       31.630786
      ],
      [
       35.383726,
       31.574893
      ],
      [
       35.3772,
       31.550594
      ],
      [
       35.37136,
       31.510179
      ],
      [
       35.349032,
       31.509886
      ],
      [
       35.300942,
       31.500805
      ],
      [
       35.210944,
       31.437506
      ],
      [
       35.221936,
       31.512523
      ],
      [
       35.203731,
       31.568746
      ],
      [
       35.30369,
       31.649799
      ],
      [
       35.333575,
       31.720846
      ],
      [
       35.439491,
       31.709478
      ]
     ]
    ]
   }
  },
  {
   "type": "Feature",
   "properties": {
    "name_he": "בועת עין גדי",
    "zoneType": "WEEKEND_BUBBLE",
    "altFloor": 0,
    "altCeiling": 3000,
    "layer": "caai-weekend-bubbles",
    "verified": false,
    "confidence": "manual-trace",
    "sheet": "north"
   },
   "geometry": {
    "type": "Polygon",
    "coordinates": [
     [
      [
       35.388337,
       31.486939
      ],
      [
       35.346,
       31.457019
      ],
      [
       35.354931,
       31.455261
      ],
      [
       35.367298,
       31.450571
      ],
      [
       35.366611,
       31.440019
      ],
      [
       35.365237,
       31.429465
      ],
      [
       35.365237,
       31.420083
      ],
      [
       35.363176,
       31.412459
      ],
      [
       35.374168,
       31.39897
      ],
      [
       35.383099,
       31.391344
      ],
      [
       35.382412,
       31.368465
      ],
      [
       35.365924,
       31.359663
      ],
      [
       35.356305,
       31.353208
      ],
      [
       35.346,
       31.341471
      ],
      [
       35.346687,
       31.328558
      ],
      [
       35.356992,
       31.308599
      ],
      [
       35.367985,
       31.298618
      ],
      [
       35.377603,
       31.292746
      ],
      [
       35.367298,
       31.258682
      ],
      [
       35.357679,
       31.243408
      ],
      [
       35.355618,
       31.212852
      ],
      [
       35.360427,
       31.177584
      ],
      [
       35.36455,
       31.165236
      ],
      [
       35.349435,
       31.156416
      ],
      [
       35.32539,
       31.168176
      ],
      [
       35.283483,
       31.196983
      ],
      [
       35.261499,
       31.215203
      ],
      [
       35.259124,
       31.217075
      ],
      [
       35.250193,
       31.23911
      ],
      [
       35.238857,
       31.246748
      ],
      [
       35.230957,
       31.253651
      ],
      [
       35.213438,
       31.268483
      ],
      [
       35.193686,
       31.284634
      ],
      [
       35.184068,
       31.293589
      ],
      [
       35.108182,
       31.358914
      ],
      [
       35.1834,
       31.415416
      ],
      [
       35.220498,
       31.425972
      ],
      [
       35.300191,
       31.495431
      ],
      [
       35.35309,
       31.50627
      ],
      [
       35.387097,
       31.492208
      ],
      [
       35.388337,
       31.486939
      ]
     ]
    ]
   }
  },
  {
   "type": "Feature",
   "properties": {
    "name_he": "בועת מיתר",
    "zoneType": "WEEKEND_BUBBLE",
    "altFloor": 0,
    "altCeiling": 3000,
    "layer": "caai-weekend-bubbles",
    "verified": false,
    "confidence": "manual-trace",
    "sheet": "north"
   },
   "geometry": {
    "type": "Polygon",
    "coordinates": [
     [
      [
       34.910436,
       31.311118
      ],
      [
       34.940302,
       31.340736
      ],
      [
       34.94099,
       31.356277
      ],
      [
       34.972919,
       31.368588
      ],
      [
       35.069564,
       31.346044
      ],
      [
       35.096701,
       31.361889
      ],
      [
       35.209472,
       31.25624
      ],
      [
       35.130157,
       31.237171
      ],
      [
       35.131875,
       31.285888
      ],
      [
       34.943392,
       31.285887
      ],
      [
       34.910436,
       31.311118
      ]
     ]
    ]
   }
  },
  {
   "type": "Feature",
   "properties": {
    "name_he": "בועת ניצנים",
    "zoneType": "WEEKEND_BUBBLE",
    "altFloor": 0,
    "altCeiling": 400,
    "layer": "caai-weekend-bubbles",
    "verified": false,
    "confidence": "manual-trace",
    "sheet": "north"
   },
   "geometry": {
    "type": "Polygon",
    "coordinates": [
     [
      [
       34.642368,
       31.832795
      ],
      [
       34.570919,
       31.713035
      ],
      [
       34.58672,
       31.677955
      ],
      [
       34.601147,
       31.673569
      ],
      [
       34.605552,
       31.697485
      ],
      [
       34.622101,
       31.720342
      ],
      [
       34.642292,
       31.753858
      ],
      [
       34.653967,
       31.758824
      ],
      [
       34.65847,
       31.765443
      ],
      [
       34.658985,
       31.779756
      ],
      [
       34.662582,
       31.784712
      ],
      [
       34.677525,
       31.801066
      ],
      [
       34.69178,
       31.819169
      ],
      [
       34.692639,
       31.831138
      ],
      [
       34.642368,
       31.832795
      ]
     ]
    ]
   }
  },
  {
   "type": "Feature",
   "properties": {
    "name_he": "בועת באר שבע",
    "zoneType": "WEEKEND_BUBBLE",
    "altFloor": 0,
    "altCeiling": 1700,
    "layer": "caai-weekend-bubbles",
    "verified": false,
    "confidence": "manual-trace",
    "sheet": "north"
   },
   "geometry": {
    "type": "Polygon",
    "coordinates": [
     [
      [
       34.843646,
       31.078336
      ],
      [
       34.815307,
       31.130407
      ],
      [
       34.812193,
       31.138501
      ],
      [
       34.808123,
       31.196949
      ],
      [
       34.808071,
       31.23021
      ],
      [
       34.80601,
       31.250774
      ],
      [
       34.763415,
       31.273095
      ],
      [
       34.770286,
       31.292475
      ],
      [
       34.76582,
       31.306273
      ],
      [
       34.756545,
       31.318015
      ],
      [
       34.742805,
       31.322124
      ],
      [
       34.727348,
       31.325353
      ],
      [
       34.719791,
       31.326233
      ],
      [
       34.71086,
       31.339733
      ],
      [
       34.727348,
       31.367314
      ],
      [
       34.743492,
       31.396353
      ],
      [
       34.76556,
       31.44167
      ],
      [
       34.817002,
       31.411895
      ],
      [
       34.86097,
       31.379928
      ],
      [
       34.883061,
       31.358579
      ],
      [
       34.910197,
       31.343614
      ],
      [
       34.934293,
       31.353639
      ],
      [
       34.933549,
       31.341163
      ],
      [
       34.916646,
       31.32587
      ],
      [
       34.902192,
       31.31009
      ],
      [
       34.937084,
       31.281982
      ],
      [
       34.907381,
       31.201306
      ],
      [
       34.927303,
       31.141084
      ],
      [
       34.894326,
       31.144025
      ],
      [
       34.889346,
       31.150053
      ],
      [
       34.865644,
       31.149171
      ],
      [
       34.82992,
       31.141525
      ],
      [
       34.851248,
       31.084361
      ],
      [
       34.843646,
       31.078336
      ]
     ]
    ]
   }
  },
  {
   "type": "Feature",
   "properties": {
    "name_he": "בועת שבטה",
    "zoneType": "WEEKEND_BUBBLE",
    "altFloor": 0,
    "altCeiling": 2000,
    "layer": "caai-weekend-bubbles",
    "verified": false,
    "confidence": "manual-trace",
    "sheet": "north"
   },
   "geometry": {
    "type": "Polygon",
    "coordinates": [
     [
      [
       34.319917,
       31.184316
      ],
      [
       34.395447,
       31.194303
      ],
      [
       34.412782,
       31.212726
      ],
      [
       34.42927,
       31.207436
      ],
      [
       34.446603,
       31.191953
      ],
      [
       34.467743,
       31.188627
      ],
      [
       34.491101,
       31.192742
      ],
      [
       34.499345,
       31.199207
      ],
      [
       34.525221,
       31.203992
      ],
      [
       34.567358,
       31.178633
      ],
      [
       34.636746,
       31.122176
      ],
      [
       34.675218,
       31.098054
      ],
      [
       34.799566,
       31.130411
      ],
      [
       34.829108,
       31.073926
      ],
      [
       34.75285,
       30.996793
      ],
      [
       34.770712,
       30.950837
      ],
      [
       34.770712,
       30.907217
      ],
      [
       34.78033,
       30.891886
      ],
      [
       34.762799,
       30.869226
      ],
      [
       34.628502,
       30.874784
      ],
      [
       34.563236,
       30.867116
      ],
      [
       34.425835,
       30.913702
      ],
      [
       34.36057,
       31.065097
      ],
      [
       34.319917,
       31.184316
      ]
     ]
    ]
   }
  },
  {
   "type": "Feature",
   "properties": {
    "name_he": "בועת זוהר",
    "zoneType": "WEEKEND_BUBBLE",
    "altFloor": 0,
    "altCeiling": 2000,
    "layer": "caai-weekend-bubbles",
    "verified": false,
    "confidence": "manual-trace",
    "sheet": "north"
   },
   "geometry": {
    "type": "Polygon",
    "coordinates": [
     [
      [
       35.245735,
       31.205657
      ],
      [
       35.374205,
       31.116865
      ],
      [
       35.38451,
       31.068024
      ],
      [
       35.371457,
       31.025636
      ],
      [
       35.351533,
       30.953767
      ],
      [
       35.308939,
       30.888922
      ],
      [
       35.308252,
       30.862381
      ],
      [
       35.308939,
       30.822852
      ],
      [
       35.277337,
       30.810459
      ],
      [
       35.20314,
       30.825803
      ],
      [
       35.277337,
       31.011502
      ],
      [
       35.232808,
       31.047348
      ],
      [
       35.216673,
       31.052641
      ],
      [
       35.217364,
       31.147009
      ],
      [
       35.239552,
       31.156273
      ],
      [
       35.245735,
       31.181556
      ],
      [
       35.245735,
       31.205657
      ]
     ]
    ]
   }
  },
  {
   "type": "Feature",
   "properties": {
    "name_he": "בועת ירוחם",
    "zoneType": "WEEKEND_BUBBLE",
    "altFloor": 0,
    "altCeiling": 2500,
    "layer": "caai-weekend-bubbles",
    "verified": false,
    "confidence": "manual-trace",
    "sheet": "north"
   },
   "geometry": {
    "type": "Polygon",
    "coordinates": [
     [
      [
       34.842455,
       31.066463
      ],
      [
       34.973824,
       30.91807
      ],
      [
       35.006801,
       30.902151
      ],
      [
       35.049395,
       30.863228
      ],
      [
       35.090615,
       30.844351
      ],
      [
       35.240383,
       30.811306
      ],
      [
       35.280229,
       30.765261
      ],
      [
       35.243818,
       30.674286
      ],
      [
       35.188857,
       30.657145
      ],
      [
       35.173743,
       30.641183
      ],
      [
       35.121531,
       30.674877
      ],
      [
       35.101607,
       30.664829
      ],
      [
       35.08718,
       30.668967
      ],
      [
       35.073852,
       30.659179
      ],
      [
       35.060811,
       30.656816
      ],
      [
       35.049819,
       30.652977
      ],
      [
       35.043296,
       30.644705
      ],
      [
       35.02716,
       30.648545
      ],
      [
       35.001397,
       30.671303
      ],
      [
       34.975064,
       30.648707
      ],
      [
       34.961324,
       30.644865
      ],
      [
       34.950331,
       30.646047
      ],
      [
       34.947927,
       30.650481
      ],
      [
       34.965789,
       30.680921
      ],
      [
       34.965102,
       30.688899
      ],
      [
       34.953003,
       30.699632
      ],
      [
       34.937278,
       30.698354
      ],
      [
       34.902928,
       30.678262
      ],
      [
       34.891249,
       30.677671
      ],
      [
       34.837319,
       30.64989
      ],
      [
       34.828731,
       30.654619
      ],
      [
       34.820831,
       30.676193
      ],
      [
       34.797816,
       30.700126
      ],
      [
       34.788885,
       30.732323
      ],
      [
       34.791643,
       30.772224
      ],
      [
       34.829075,
       30.865131
      ],
      [
       34.824953,
       30.876928
      ],
      [
       34.788198,
       30.924393
      ],
      [
       34.791633,
       30.964764
      ],
      [
       34.775145,
       30.997167
      ],
      [
       34.842455,
       31.066463
      ]
     ]
    ]
   }
  },
  {
   "type": "Feature",
   "properties": {
    "name_he": "בועת קציעות",
    "zoneType": "WEEKEND_BUBBLE",
    "altFloor": 0,
    "altCeiling": 4000,
    "layer": "caai-weekend-bubbles",
    "verified": false,
    "confidence": "manual-trace",
    "sheet": "north"
   },
   "geometry": {
    "type": "Polygon",
    "coordinates": [
     [
      [
       34.488146,
       30.86451
      ],
      [
       34.564261,
       30.850789
      ],
      [
       34.615172,
       30.859796
      ],
      [
       34.562991,
       30.793168
      ],
      [
       34.580155,
       30.689297
      ],
      [
       34.62753,
       30.636733
      ],
      [
       34.701002,
       30.633186
      ],
      [
       34.768984,
       30.677057
      ],
      [
       34.790968,
       30.658143
      ],
      [
       34.76761,
       30.652823
      ],
      [
       34.734633,
       30.620895
      ],
      [
       34.689291,
       30.60197
      ],
      [
       34.653623,
       30.573495
      ],
      [
       34.617156,
       30.521497
      ],
      [
       34.58624,
       30.514986
      ],
      [
       34.553264,
       30.551682
      ],
      [
       34.553951,
       30.610842
      ],
      [
       34.53128,
       30.697149
      ],
      [
       34.462736,
       30.831499
      ],
      [
       34.487998,
       30.852426
      ],
      [
       34.488146,
       30.86451
      ]
     ]
    ]
   }
  },
  {
   "type": "Feature",
   "properties": {
    "name_he": "בועת פארן",
    "zoneType": "WEEKEND_BUBBLE",
    "altFloor": 0,
    "altCeiling": 2500,
    "layer": "caai-weekend-bubbles",
    "verified": false,
    "confidence": "manual-trace",
    "sheet": "north"
   },
   "geometry": {
    "type": "Polygon",
    "coordinates": [
     [
      [
       34.843867,
       30.645137
      ],
      [
       34.887769,
       30.669811
      ],
      [
       34.902263,
       30.67292
      ],
      [
       34.937987,
       30.69124
      ],
      [
       34.952414,
       30.693013
      ],
      [
       34.960658,
       30.688876
      ],
      [
       34.958597,
       30.675875
      ],
      [
       34.942796,
       30.650458
      ],
      [
       34.947605,
       30.64159
      ],
      [
       34.961634,
       30.641525
      ],
      [
       34.977436,
       30.644481
      ],
      [
       35.001481,
       30.666649
      ],
      [
       35.023121,
       30.644481
      ],
      [
       35.050945,
       30.639751
      ],
      [
       35.055067,
       30.648028
      ],
      [
       35.065029,
       30.651575
      ],
      [
       35.07499,
       30.65128
      ],
      [
       35.087013,
       30.65926
      ],
      [
       35.10144,
       30.659851
      ],
      [
       35.120676,
       30.669013
      ],
      [
       35.168905,
       30.634496
      ],
      [
       35.166157,
       30.620895
      ],
      [
       35.170966,
       30.606702
      ],
      [
       35.186767,
       30.59014
      ],
      [
       35.183516,
       30.571169
      ],
      [
       35.178707,
       30.557856
      ],
      [
       35.165641,
       30.489723
      ],
      [
       35.147435,
       30.45478
      ],
      [
       35.145731,
       30.40301
      ],
      [
       35.160158,
       30.372186
      ],
      [
       35.12582,
       30.317979
      ],
      [
       35.105438,
       30.30591
      ],
      [
       35.074982,
       30.302258
      ],
      [
       35.04441,
       30.290985
      ],
      [
       35.012465,
       30.291578
      ],
      [
       34.987732,
       30.301665
      ],
      [
       34.973649,
       30.318572
      ],
      [
       34.967122,
       30.342
      ],
      [
       34.971931,
       30.375205
      ],
      [
       34.954756,
       30.397434
      ],
      [
       34.945825,
       30.455799
      ],
      [
       34.936894,
       30.482451
      ],
      [
       34.953726,
       30.50436
      ],
      [
       34.906666,
       30.601705
      ],
      [
       34.843867,
       30.645137
      ]
     ]
    ]
   }
  },
  {
   "type": "Feature",
   "properties": {
    "name_he": "בועת חריף",
    "zoneType": "WEEKEND_BUBBLE",
    "altFloor": 0,
    "altCeiling": 4000,
    "layer": "caai-weekend-bubbles",
    "verified": false,
    "confidence": "manual-trace",
    "sheet": "north"
   },
   "geometry": {
    "type": "Polygon",
    "coordinates": [
     [
      [
       34.796447,
       30.654454
      ],
      [
       34.800611,
       30.626328
      ],
      [
       34.86519,
       30.599715
      ],
      [
       34.87893,
       30.565995
      ],
      [
       34.902975,
       30.556528
      ],
      [
       34.922211,
       30.522793
      ],
      [
       34.920837,
       30.482532
      ],
      [
       34.924162,
       30.439795
      ],
      [
       34.945713,
       30.368562
      ],
      [
       34.889831,
       30.310654
      ],
      [
       34.853027,
       30.285606
      ],
      [
       34.792571,
       30.233374
      ],
      [
       34.771274,
       30.203091
      ],
      [
       34.735549,
       30.189431
      ],
      [
       34.721809,
       30.168045
      ],
      [
       34.695703,
       30.223875
      ],
      [
       34.638682,
       30.389394
      ],
      [
       34.629751,
       30.400063
      ],
      [
       34.613262,
       30.432063
      ],
      [
       34.5954,
       30.488335
      ],
      [
       34.589217,
       30.50965
      ],
      [
       34.621507,
       30.516162
      ],
      [
       34.664955,
       30.57261
      ],
      [
       34.69698,
       30.599262
      ],
      [
       34.737514,
       30.616413
      ],
      [
       34.768085,
       30.644499
      ],
      [
       34.796447,
       30.654454
      ]
     ]
    ]
   }
  },
  {
   "type": "Feature",
   "properties": {
    "name_he": "בועת שיטים",
    "zoneType": "WEEKEND_BUBBLE",
    "altFloor": 0,
    "altCeiling": 2500,
    "layer": "caai-weekend-bubbles",
    "verified": false,
    "confidence": "manual-trace",
    "sheet": "north"
   },
   "geometry": {
    "type": "Polygon",
    "coordinates": [
     [
      [
       35.028532,
       30.276561
      ],
      [
       35.126978,
       30.296481
      ],
      [
       35.126978,
       30.269778
      ],
      [
       35.123636,
       30.250466
      ],
      [
       35.126723,
       30.226442
      ],
      [
       35.11736,
       30.187249
      ],
      [
       35.122169,
       30.150415
      ],
      [
       35.128352,
       30.121889
      ],
      [
       35.109803,
       30.074328
      ],
      [
       35.089879,
       30.038047
      ],
      [
       35.017744,
       30.058271
      ],
      [
       35.019805,
       30.115351
      ],
      [
       35.026675,
       30.160516
      ],
      [
       35.017546,
       30.200633
      ],
      [
       35.022448,
       30.226161
      ],
      [
       35.028532,
       30.276561
      ]
     ]
    ]
   }
  },
  {
   "type": "Feature",
   "properties": {
    "name_he": "בועת צניפים",
    "zoneType": "WEEKEND_BUBBLE",
    "altFloor": 0,
    "altCeiling": 2500,
    "layer": "caai-weekend-bubbles",
    "verified": false,
    "confidence": "manual-trace",
    "sheet": "north"
   },
   "geometry": {
    "type": "Polygon",
    "coordinates": [
     [
      [
       34.941111,
       30.338182
      ],
      [
       34.947981,
       30.314753
      ],
      [
       34.947638,
       30.303185
      ],
      [
       34.963439,
       30.293098
      ],
      [
       34.971339,
       30.282418
      ],
      [
       35.012216,
       30.269065
      ],
      [
       34.998142,
       30.205319
      ],
      [
       35.008447,
       30.167304
      ],
      [
       35.013228,
       30.14685
      ],
      [
       34.995022,
       30.089491
      ],
      [
       35.001411,
       30.059289
      ],
      [
       34.946934,
       30.072565
      ],
      [
       34.847318,
       30.046991
      ],
      [
       34.806441,
       30.025575
      ],
      [
       34.756633,
       30.07316
      ],
      [
       34.724344,
       30.152516
      ],
      [
       34.748733,
       30.179845
      ],
      [
       34.782052,
       30.190537
      ],
      [
       34.800945,
       30.222309
      ],
      [
       34.908461,
       30.303919
      ],
      [
       34.926224,
       30.326953
      ],
      [
       34.941111,
       30.338182
      ]
     ]
    ]
   }
  },
  {
   "type": "Feature",
   "properties": {
    "name_he": "בועת זבולון הרחבה",
    "zoneType": "WEEKEND_BUBBLE",
    "weekendOnly": false,
    "altFloor": 0,
    "altCeiling": 500,
    "layer": "caai-weekend-bubbles",
    "verified": false,
    "confidence": "manual-trace",
    "sheet": "north"
   },
   "geometry": {
    "type": "Polygon",
    "coordinates": [
     [
      [
       35.088272,
       32.984764
      ],
      [
       35.098645,
       32.985926
      ],
      [
       35.150514,
       32.98045
      ],
      [
       35.154636,
       32.968921
      ],
      [
       35.164717,
       32.95725
      ],
      [
       35.165866,
       32.936373
      ],
      [
       35.205689,
       32.909712
      ],
      [
       35.197157,
       32.905208
      ],
      [
       35.181356,
       32.90016
      ],
      [
       35.172557,
       32.903659
      ],
      [
       35.16981,
       32.915939
      ],
      [
       35.145775,
       32.916801
      ],
      [
       35.103724,
       32.920351
      ],
      [
       35.095824,
       32.94717
      ],
      [
       35.095828,
       32.952793
      ],
      [
       35.089469,
       32.962594
      ],
      [
       35.085691,
       32.967639
      ],
      [
       35.088272,
       32.984764
      ]
     ]
    ]
   }
  },
  {
   "type": "Feature",
   "properties": {
    "name_he": "בועת זבולון",
    "zoneType": "WEEKEND_BUBBLE",
    "weekendOnly": false,
    "altFloor": 0,
    "altCeiling": 500,
    "layer": "caai-weekend-bubbles",
    "verified": false,
    "confidence": "manual-trace",
    "sheet": "north"
   },
   "geometry": {
    "type": "Polygon",
    "coordinates": [
     [
      [
       35.104236,
       32.918647
      ],
      [
       35.16504,
       32.912997
      ],
      [
       35.168818,
       32.906506
      ],
      [
       35.168818,
       32.900881
      ],
      [
       35.178952,
       32.89641
      ],
      [
       35.172558,
       32.877426
      ],
      [
       35.172597,
       32.870875
      ],
      [
       35.150069,
       32.828831
      ],
      [
       35.128613,
       32.838923
      ],
      [
       35.132063,
       32.847208
      ],
      [
       35.104412,
       32.84995
      ],
      [
       35.101149,
       32.914753
      ],
      [
       35.104236,
       32.918647
      ]
     ]
    ]
   }
  },
  {
   "type": "Feature",
   "properties": {
    "name_he": "בועת אלמוג",
    "zoneType": "WEEKEND_BUBBLE",
    "weekendOnly": true,
    "altFloor": 0,
    "altCeiling": 3000,
    "layer": "caai-weekend-bubbles",
    "verified": false,
    "confidence": "manual-trace",
    "sheet": "north"
   },
   "geometry": {
    "type": "Polygon",
    "coordinates": [
     [
      [
       35.333203,
       31.806351
      ],
      [
       35.37511,
       31.818906
      ],
      [
       35.45639,
       31.78972
      ],
      [
       35.464077,
       31.748519
      ],
      [
       35.451165,
       31.719701
      ],
      [
       35.333546,
       31.726311
      ],
      [
       35.336326,
       31.758609
      ],
      [
       35.333203,
       31.806351
      ]
     ]
    ]
   }
  },
  {
   "type": "Feature",
   "properties": {
    "name_he": "בועת נטופה",
    "zoneType": "WEEKEND_BUBBLE",
    "weekendOnly": true,
    "altFloor": 0,
    "altCeiling": 2000,
    "layer": "caai-weekend-bubbles",
    "verified": false,
    "confidence": "manual-trace",
    "sheet": "north"
   },
   "geometry": {
    "type": "Polygon",
    "coordinates": [
     [
      [
       35.303278,
       32.721142
      ],
      [
       35.235258,
       32.769381
      ],
      [
       35.092542,
       32.756819
      ],
      [
       35.091683,
       32.744399
      ],
      [
       35.073647,
       32.757974
      ],
      [
       35.077083,
       32.763894
      ],
      [
       35.125179,
       32.781646
      ],
      [
       35.145618,
       32.808213
      ],
      [
       35.181655,
       32.887226
      ],
      [
       35.182512,
       32.892849
      ],
      [
       35.186845,
       32.89246
      ],
      [
       35.19406,
       32.888278
      ],
      [
       35.211236,
       32.883808
      ],
      [
       35.251602,
       32.886115
      ],
      [
       35.301071,
       32.877175
      ],
      [
       35.359988,
       32.880347
      ],
      [
       35.418389,
       32.871694
      ],
      [
       35.43986,
       32.874579
      ],
      [
       35.452407,
       32.866891
      ],
      [
       35.478116,
       32.861565
      ],
      [
       35.473713,
       32.813519
      ],
      [
       35.467873,
       32.798509
      ],
      [
       35.338703,
       32.771224
      ],
      [
       35.303278,
       32.721142
      ]
     ]
    ]
   }
  },
  {
   "type": "Feature",
   "properties": {
    "name_he": "בועת השרון דרום",
    "zoneType": "WEEKEND_BUBBLE",
    "weekendOnly": false,
    "altFloor": 0,
    "altCeiling": 700,
    "layer": "caai-weekend-bubbles",
    "verified": false,
    "confidence": "manual-trace",
    "sheet": "north"
   },
   "geometry": {
    "type": "Polygon",
    "coordinates": [
     [
      [
       34.889866,
       32.441413
      ],
      [
       34.899485,
       32.443732
      ],
      [
       34.926625,
       32.459381
      ],
      [
       34.931917,
       32.460391
      ],
      [
       34.939819,
       32.459956
      ],
      [
       34.949266,
       32.45561
      ],
      [
       34.949266,
       32.45561
      ],
      [
       34.971552,
       32.415317
      ],
      [
       35.013336,
       32.407057
      ],
      [
       35.008698,
       32.364715
      ],
      [
       35.008698,
       32.364715
      ],
      [
       34.99822,
       32.344552
      ],
      [
       34.992724,
       32.297827
      ],
      [
       34.971424,
       32.23452
      ],
      [
       34.957339,
       32.216653
      ],
      [
       34.916802,
       32.224933
      ],
      [
       34.830918,
       32.226676
      ],
      [
       34.827654,
       32.232196
      ],
      [
       34.839506,
       32.273729
      ],
      [
       34.852904,
       32.27823
      ],
      [
       34.864594,
       32.313251
      ],
      [
       34.865443,
       32.325836
      ],
      [
       34.869566,
       32.336138
      ],
      [
       34.869566,
       32.336138
      ],
      [
       34.877295,
       32.355287
      ],
      [
       34.876436,
       32.359929
      ],
      [
       34.873344,
       32.362975
      ],
      [
       34.869566,
       32.36573
      ],
      [
       34.863038,
       32.371242
      ],
      [
       34.863038,
       32.377913
      ],
      [
       34.864584,
       32.386759
      ],
      [
       34.867333,
       32.395458
      ],
      [
       34.872486,
       32.402273
      ],
      [
       34.880043,
       32.411986
      ],
      [
       34.88262,
       32.41445
      ],
      [
       34.889866,
       32.441413
      ]
     ]
    ]
   }
  }
 ]
}